{"type": "FeatureCollection", "features": [ {"type": "Feature", "properties": {"norad_id": 28649, "name": "IRS-P5 (CARTOSAT-1)", "group": "resource", "lat": -58.0055999958789, "lon": 16.811364189939034, "alt_km": 604.4046817407179, "timestamp": "2025-12-03T17:47:50.368539+00:00", "meta": {"OBJECT_NAME": "IRS-P5 (CARTOSAT-1)", "OBJECT_ID": "2005-017A", "EPOCH": "2025-12-03T11:36:55.412352", "MEAN_MOTION": 14.90351653, "ECCENTRICITY": 0.0001769, "INCLINATION": 97.5501, "RA_OF_ASC_NODE": 4.3079, "ARG_OF_PERICENTER": 53.2464, "MEAN_ANOMALY": 306.8917, "EPHEMERIS_TYPE": 0, "CLASSIFICATION_TYPE": "U", "NORAD_CAT_ID": 28649, "ELEMENT_SET_NO": 999, "REV_AT_EPOCH": 11466, "BSTAR": 0.00030249, "MEAN_MOTION_DOT": 2.89e-05, "MEAN_MOTION_DDOT": 0}, "tle": {"line1": "1 28649U 05017A   25337.48397468  .00002890  00000+0  30249-3 0  9990", "line2": "2 28649  97.5501   4.3079 0001769  53.2464 306.8917 14.90351653114667"}}, "geometry": {"type": "Point", "coordinates": [16.811364189939034, -58.0055999958789]}}, {"type": "Feature", "properties": {"norad_id": 28893, "name": "SINAH 1", "group": "resource", "lat": 67.2649752271196, "lon": 85.9907621964349, "alt_km": 674.838481500451, "timestamp": "2025-12-03T17:47:50.368551+00:00", "meta": {"OBJECT_NAME": "SINAH 1", "OBJECT_ID": "2005-043D", "EPOCH": "2025-12-03T10:55:20.476704", "MEAN_MOTION": 14.63945212, "ECCENTRICITY": 0.0014828, "INCLINATION": 98.26, "RA_OF_ASC_NODE": 105.9879, "ARG_OF_PERICENTER": 164.9029, "MEAN_ANOMALY": 195.2619, "EPHEMERIS_TYPE": 0, "CLASSIFICATION_TYPE": "U", "NORAD_CAT_ID": 28893, "ELEMENT_SET_NO": 999, "REV_AT_EPOCH": 7188, "BSTAR": 0.00016282, "MEAN_MOTION_DOT": 8.04e-06, "MEAN_MOTION_DDOT": 0}, "tle": {"line1": "1 28893U 05043D   25337.45509811  .00000804  00000+0  16282-3 0  9998", "line2": "2 28893  98.2600 105.9879 0014828 164.9029 195.2619 14.63945212 71884"}}, "geometry": {"type": "Point", "coordinates": [85.9907621964349, 67.2649752271196]}}, {"type": "Feature", "properties": {"norad_id": 29079, "name": "EROS B", "group": "resource", "lat": 1.47734503644135, "lon": 93.71925784452408, "alt_km": 377.82384887698026, "timestamp": "2025-12-03T17:47:50.368563+00:00", "meta": {"OBJECT_NAME": "EROS B", "OBJECT_ID": "2006-014A", "EPOCH": "2025-12-03T11:39:05.486688", "MEAN_MOTION": 15.64656334, "ECCENTRICITY": 0.0002171, "INCLINATION": 97.3489, "RA_OF_ASC_NODE": 93.6431, "ARG_OF_PERICENTER": 235.7623, "MEAN_ANOMALY": 124.3431, "EPHEMERIS_TYPE": 0, "CLASSIFICATION_TYPE": "U", "NORAD_CAT_ID": 29079, "ELEMENT_SET_NO": 999, "REV_AT_EPOCH": 8935, "BSTAR": 0.0017029, "MEAN_MOTION_DOT": 0.00167689, "MEAN_MOTION_DDOT": 0}, "tle": {"line1": "1 29079U 06014A   25337.48548017  .00167689  00000+0  17029-2 0  9992", "line2": "2 29079  97.3489  93.6431 0002171 235.7623 124.3431 15.64656334 89350"}}, "geometry": {"type": "Point", "coordinates": [93.71925784452408, 1.47734503644135]}}, {"type": "Feature", "properties": {"norad_id": 29228, "name": "RESURS-DK 1", "group": "resource", "lat": -35.25155462212684, "lon": -39.93771945681806, "alt_km": 531.8765431631509, "timestamp": "2025-12-03T17:47:50.368575+00:00", "meta": {"OBJECT_NAME": "RESURS-DK 1", "OBJECT_ID": "2006-021A", "EPOCH": "2025-12-03T12:04:24.593088", "MEAN_MOTION": 15.12074671, "ECCENTRICITY": 0.0007837, "INCLINATION": 69.9327, "RA_OF_ASC_NODE": 125.7053, "ARG_OF_PERICENTER": 265.3674, "MEAN_ANOMALY": 94.6597, "EPHEMERIS_TYPE": 0, "CLASSIFICATION_TYPE": "U", "NORAD_CAT_ID": 29228, "ELEMENT_SET_NO": 999, "REV_AT_EPOCH": 7298, "BSTAR": 0.00027747, "MEAN_MOTION_DOT": 4.683e-05, "MEAN_MOTION_DDOT": 0}, "tle": {"line1": "1 29228U 06021A   25337.50306242  .00004683  00000+0  27747-3 0  9994", "line2": "2 29228  69.9327 125.7053 0007837 265.3674  94.6597 15.12074671 72982"}}, "geometry": {"type": "Point", "coordinates": [-39.93771945681806, -35.25155462212684]}}, {"type": "Feature", "properties": {"norad_id": 29268, "name": "ARIRANG-2 (KOMPSAT-2)", "group": "resource", "lat": -42.146872389532774, "lon": 173.80403423894123, "alt_km": 676.1717090411148, "timestamp": "2025-12-03T17:47:50.368602+00:00", "meta": {"OBJECT_NAME": "ARIRANG-2 (KOMPSAT-2)", "OBJECT_ID": "2006-031A", "EPOCH": "2025-12-03T13:23:03.962400", "MEAN_MOTION": 14.64480342, "ECCENTRICITY": 0.0013993, "INCLINATION": 97.8264, "RA_OF_ASC_NODE": 166.4782, "ARG_OF_PERICENTER": 339.509, "MEAN_ANOMALY": 89.2019, "EPHEMERIS_TYPE": 0, "CLASSIFICATION_TYPE": "U", "NORAD_CAT_ID": 29268, "ELEMENT_SET_NO": 999, "REV_AT_EPOCH": 3284, "BSTAR": 0.00012693, "MEAN_MOTION_DOT": 6.28e-06, "MEAN_MOTION_DDOT": 0}, "tle": {"line1": "1 29268U 06031A   25337.55768475  .00000628  00000+0  12693-3 0  9993", "line2": "2 29268  97.8264 166.4782 0013993 339.5090  89.2019 14.64480342 32845"}}, "geometry": {"type": "Point", "coordinates": [173.80403423894123, -42.146872389532774]}}, {"type": "Feature", "properties": {"norad_id": 29709, "name": "LAPAN-TUBSAT", "group": "resource", "lat": -71.27096558514411, "lon": -7.3649813892881815, "alt_km": 628.2888902666127, "timestamp": "2025-12-03T17:47:50.368616+00:00", "meta": {"OBJECT_NAME": "LAPAN-TUBSAT", "OBJECT_ID": "2007-001A", "EPOCH": "2025-12-03T11:39:38.299680", "MEAN_MOTION": 14.85647787, "ECCENTRICITY": 0.0013596, "INCLINATION": 98.1252, "RA_OF_ASC_NODE": 327.4525, "ARG_OF_PERICENTER": 101.5016, "MEAN_ANOMALY": 258.7726, "EPHEMERIS_TYPE": 0, "CLASSIFICATION_TYPE": "U", "NORAD_CAT_ID": 29709, "ELEMENT_SET_NO": 999, "REV_AT_EPOCH": 2209, "BSTAR": 0.0001286, "MEAN_MOTION_DOT": 1.058e-05, "MEAN_MOTION_DDOT": 0}, "tle": {"line1": "1 29709U 07001A   25337.48585995  .00001058  00000+0  12860-3 0  9991", "line2": "2 29709  98.1252 327.4525 0013596 101.5016 258.7726 14.85647787 22099"}}, "geometry": {"type": "Point", "coordinates": [-7.3649813892881815, -71.27096558514411]}}, {"type": "Feature", "properties": {"norad_id": 31113, "name": "HAIYANG-1B", "group": "resource", "lat": 37.83624955975474, "lon": 148.92659259728254, "alt_km": 783.6701148076672, "timestamp": "2025-12-03T17:47:50.368628+00:00", "meta": {"OBJECT_NAME": "HAIYANG-1B", "OBJECT_ID": "2007-010A", "EPOCH": "2025-12-03T12:06:17.193024", "MEAN_MOTION": 14.30959975, "ECCENTRICITY": 0.0014589, "INCLINATION": 98.3307, "RA_OF_ASC_NODE": 322.1645, "ARG_OF_PERICENTER": 63.5351, "MEAN_ANOMALY": 296.7327, "EPHEMERIS_TYPE": 0, "CLASSIFICATION_TYPE": "U", "NORAD_CAT_ID": 31113, "ELEMENT_SET_NO": 999, "REV_AT_EPOCH": 97264, "BSTAR": 9.1823e-05, "MEAN_MOTION_DOT": 2e-06, "MEAN_MOTION_DDOT": 0}, "tle": {"line1": "1 31113U 07010A   25337.50436566  .00000200  00000+0  91823-4 0  9990", "line2": "2 31113  98.3307 322.1645 0014589  63.5351 296.7327 14.30959975972640"}}, "geometry": {"type": "Point", "coordinates": [148.92659259728254, 37.83624955975474]}}, {"type": "Feature", "properties": {"norad_id": 31598, "name": "COSMO-SKYMED 1", "group": "resource", "lat": -78.76558287728736, "lon": -152.67938592403377, "alt_km": 588.6196872469227, "timestamp": "2025-12-03T17:47:50.368640+00:00", "meta": {"OBJECT_NAME": "COSMO-SKYMED 1", "OBJECT_ID": "2007-023A", "EPOCH": "2025-12-03T11:44:27.272256", "MEAN_MOTION": 14.95656321, "ECCENTRICITY": 0.0001429, "INCLINATION": 97.8841, "RA_OF_ASC_NODE": 162.8283, "ARG_OF_PERICENTER": 80.989, "MEAN_ANOMALY": 279.1492, "EPHEMERIS_TYPE": 0, "CLASSIFICATION_TYPE": "U", "NORAD_CAT_ID": 31598, "ELEMENT_SET_NO": 999, "REV_AT_EPOCH": 52, "BSTAR": 0.0004747, "MEAN_MOTION_DOT": 5.22e-05, "MEAN_MOTION_DDOT": 0}, "tle": {"line1": "1 31598U 07023A   25337.48920454  .00005220  00000+0  47470-3 0  9997", "line2": "2 31598  97.8841 162.8283 0001429  80.9890 279.1492 14.95656321   528"}}, "geometry": {"type": "Point", "coordinates": [-152.67938592403377, -78.76558287728736]}}, {"type": "Feature", "properties": {"norad_id": 31698, "name": "TERRASAR-X", "group": "resource", "lat": -74.31811458628168, "lon": 135.49563459932747, "alt_km": 517.0287998846516, "timestamp": "2025-12-03T17:47:50.368652+00:00", "meta": {"OBJECT_NAME": "TERRASAR-X", "OBJECT_ID": "2007-026A", "EPOCH": "2025-12-02T13:47:56.806656", "MEAN_MOTION": 15.19154546, "ECCENTRICITY": 0.0001916, "INCLINATION": 97.4445, "RA_OF_ASC_NODE": 342.105, "ARG_OF_PERICENTER": 86.6664, "MEAN_ANOMALY": 273.4789, "EPHEMERIS_TYPE": 0, "CLASSIFICATION_TYPE": "U", "NORAD_CAT_ID": 31698, "ELEMENT_SET_NO": 999, "REV_AT_EPOCH": 2337, "BSTAR": 8.5350444e-05, "MEAN_MOTION_DOT": 1.726e-05, "MEAN_MOTION_DDOT": 0}, "tle": {"line1": "1 31698U 07026A   25336.57496304  .00001726  00000+0  85350-4 0  9999", "line2": "2 31698  97.4445 342.1050 0001916  86.6664 273.4789 15.19154546 23376"}}, "geometry": {"type": "Point", "coordinates": [135.49563459932747, -74.31811458628168]}}, {"type": "Feature", "properties": {"norad_id": 32060, "name": "WORLDVIEW-1 (WV-1)", "group": "resource", "lat": 79.15455607863426, "lon": 52.748817902022914, "alt_km": 484.59082117022444, "timestamp": "2025-12-03T17:47:50.368663+00:00", "meta": {"OBJECT_NAME": "WORLDVIEW-1 (WV-1)", "OBJECT_ID": "2007-041A", "EPOCH": "2025-12-03T07:59:12.124608", "MEAN_MOTION": 15.24439924, "ECCENTRICITY": 7.52e-05, "INCLINATION": 97.3839, "RA_OF_ASC_NODE": 94.948, "ARG_OF_PERICENTER": 93.3039, "MEAN_ANOMALY": 266.8285, "EPHEMERIS_TYPE": 0, "CLASSIFICATION_TYPE": "U", "NORAD_CAT_ID": 32060, "ELEMENT_SET_NO": 999, "REV_AT_EPOCH": 1304, "BSTAR": 0.00048185, "MEAN_MOTION_DOT": 0.00011762, "MEAN_MOTION_DDOT": 0}, "tle": {"line1": "1 32060U 07041A   25337.33277922  .00011762  00000+0  48185-3 0  9993", "line2": "2 32060  97.3839  94.9480 0000752  93.3039 266.8285 15.24439924 13045"}}, "geometry": {"type": "Point", "coordinates": [52.748817902022914, 79.15455607863426]}}]}